0299P         2015 02 23.2724  3.139554  0.282122  323.5091  271.6800   10.4798  20141209  11.5  4.0   299P/Catalina-PANSTARRS
